STARLINK-32695          
1 62866U 25022N   26068.55446669  .00024542  00000+0  83824-3 0  9990
2 62866  53.1606 129.9413 0001135 100.6636 259.4492 15.30191356 61884
JINJUSAT-1B             
1 63210U 25052A   26068.66363707  .00019955  00000+0  68430-3 0  9998
2 63210  97.4113 325.4613 0005550  82.1930 277.9941 15.30194857 54866
